{"type":"FeatureCollection","bbox":[-7.0,47.5,6.0,56.5],"features":[{"type":"Feature","properties":{"NAME":"Jersey","NAME_EN":"Jersey","ADM0_A3":"JEY","ISO_A3":"JEY","SOVEREIGNT":"United Kingdom","TYPE":"Country"},"geometry":{"type":"MultiPolygon","coordinates":[[[[-2.01865,49.23125],[-2.00991,49.18081],[-2.05376,49.16982],[-2.09102,49.1874],[-2.16567,49.1874],[-2.23584,49.17637],[-2.22051,49.26636],[-2.08223,49.25537],[-2.01865,49.23125]]]]}},{"type":"Feature","properties":{"NAME":"Guernsey","NAME_EN":"Guernsey","ADM0_A3":"GGY","ISO_A3":"GGY","SOVEREIGNT":"United Kingdom","TYPE":"Country"},"geometry":{"type":"MultiPolygon","coordinates":[[[[-2.5123,49.49453],[-2.54736,49.42871],[-2.63901,49.45093],[-2.64614,49.46821],[-2.54219,49.50659],[-2.5209,49.5063],[-2.5123,49.49453]]]]}},{"type":"Feature","properties":{"NAME":"Isle of Man","NAME_EN":"Isle of Man","ADM0_A3":"IMN","ISO_A3":"IMN","SOVEREIGNT":"United Kingdom","TYPE":"Country"},"geometry":{"type":"MultiPolygon","coordinates":[[[[-4.41206,54.18535],[-4.61426,54.05869],[-4.69609,54.08145],[-4.76577,54.06943],[-4.78535,54.07305],[-4.74556,54.1188],[-4.69873,54.2249],[-4.61484,54.26694],[-4.50864,54.37671],[-4.42471,54.40718],[-4.39556,54.40293],[-4.3772,54.39258],[-4.33799,54.26909],[-4.39229,54.22539],[-4.41206,54.18535]]]]}},{"type":"Feature","properties":{"NAME":"United Kingdom","NAME_EN":"United Kingdom","ADM0_A3":"GBR","ISO_A3":"GBR","SOVEREIGNT":"United Kingdom","TYPE":"Country"},"geometry":{"type":"MultiPolygon","coordinates":[[[[-2.66768,51.623],[-2.74214,51.5811],[-2.97852,51.53887],[-3.08037,51.4958],[-3.25879,51.39849],[-3.29312,51.39043],[-3.56235,51.41382],[-3.7627,51.53994],[-3.89077,51.59165],[-3.94365,51.59751],[-3.99834,51.58213],[-4.11528,51.56641],[-4.23457,51.56909],[-4.17368,51.62734],[-4.09102,51.65991],[-4.27617,51.68252],[-4.32764,51.70024],[-4.38628,51.74106],[-4.53149,51.74805],[-4.60078,51.73765],[-4.71763,51.68369],[-4.90229,51.62627],[-5.12476,51.70586],[-5.16836,51.74072],[-5.16724,51.80806],[-5.20059,51.86138],[-5.2623,51.88018],[-5.18335,51.94966],[-5.08809,51.9959],[-4.87852,52.04185],[-4.56113,52.15088],[-4.38315,52.19731],[-4.21772,52.27744],[-4.14937,52.32627],[-4.09976,52.39312],[-4.05054,52.47515],[-3.98032,52.54175],[-4.04844,52.55762],[-4.07891,52.60786],[-4.0707,52.65884],[-4.03926,52.70405],[-4.06743,52.76074],[-4.11753,52.82002],[-4.11475,52.86616],[-4.10146,52.91548],[-4.22915,52.91284],[-4.35645,52.89741],[-4.47183,52.86245],[-4.58369,52.81494],[-4.68306,52.80615],[-4.68145,52.84414],[-4.63833,52.89111],[-4.52568,52.9582],[-4.40508,53.01382],[-4.36221,53.05605],[-4.32842,53.10513],[-4.26855,53.14453],[-4.11104,53.21895],[-3.80928,53.30269],[-3.76421,53.30762],[-3.6459,53.2979],[-3.52959,53.31055],[-3.42773,53.34067],[-3.32617,53.34717],[-3.09756,53.2603],[-3.16558,53.39468],[-3.06475,53.42686],[-2.91855,53.30537],[-2.86416,53.29258],[-2.74951,53.31021],[-2.79375,53.33071],[-2.84541,53.33193],[-2.91309,53.35024],[-2.96997,53.38921],[-3.0646,53.51284],[-3.05947,53.58623],[-2.9957,53.66255],[-2.9251,53.73276],[-2.98433,53.74673],[-3.03179,53.77358],[-3.04536,53.84385],[-3.02676,53.90591],[-2.89985,53.96069],[-2.8624,54.04385],[-2.84648,54.1353],[-2.86758,54.17725],[-2.99351,54.17051],[-3.05474,54.15342],[-3.10967,54.12632],[-3.16597,54.12793],[-3.32153,54.2291],[-3.41025,54.30562],[-3.56938,54.46758],[-3.59204,54.56436],[-3.4646,54.7731],[-3.26792,54.90659],[-3.03623,54.95308],[-3.08105,54.96196],[-3.43408,54.96377],[-3.55044,54.94741],[-3.6583,54.89287],[-3.71924,54.87612],[-3.78325,54.86992],[-3.8416,54.84277],[-3.89858,54.80508],[-3.95791,54.78096],[-4.07578,54.78721],[-4.13296,54.77925],[-4.17402,54.80107],[-4.2084,54.83716],[-4.25342,54.84678],[-4.30366,54.83569],[-4.40991,54.78706],[-4.51748,54.75835],[-4.64756,54.78901],[-4.81807,54.84614],[-4.85171,54.82529],[-4.8895,54.77227],[-4.91123,54.68945],[-5.03232,54.76138],[-5.1355,54.85752],[-5.17012,54.91792],[-5.17271,54.98589],[-5.1167,55.01226],[-5.05586,54.98813],[-4.96519,55.14946],[-4.78481,55.35942],[-4.72114,55.421],[-4.67676,55.50132],[-4.68437,55.55391],[-4.72417,55.59829],[-4.89185,55.69912],[-4.88965,55.7812],[-4.87168,55.87393],[-4.82607,55.92954],[-4.80684,55.94014],[-4.58408,55.93867],[-4.67095,55.96738],[-4.84409,56.05117],[-4.84102,56.08086],[-4.80029,56.15835],[-4.81914,56.15049],[-4.85625,56.1147],[-4.9271,56.02808],[-4.97036,56.00786],[-5.09282,55.9873],[-5.11499,55.94463],[-5.13467,55.9335],[-5.19585,55.92866],[-5.2146,55.88887],[-5.22822,55.88633],[-5.24561,55.92925],[-5.24731,56.00039],[-5.22295,56.06582],[-5.17642,56.11699],[-4.99697,56.23335],[-5.08433,56.19746],[-5.28232,56.08994],[-5.38345,56.01924],[-5.41045,55.99536],[-5.4189,55.97524],[-5.41831,55.95205],[-5.3729,55.82769],[-5.38584,55.77012],[-5.55645,55.3896],[-5.58877,55.35142],[-5.61846,55.33145],[-5.64653,55.32686],[-5.73066,55.33413],[-5.76821,55.36265],[-5.76787,55.39497],[-5.7521,55.44346],[-5.68135,55.62397],[-5.65063,55.67412],[-5.60503,55.72075],[-5.50449,55.80239],[-5.50693,55.80771],[-5.57388,55.7917],[-5.60239,55.79697],[-5.62285,55.81313],[-5.60957,56.05527],[-5.55527,56.13496],[-5.53496,56.25083],[-5.48789,56.35005],[-5.4334,56.42231],[-5.39194,56.51479],[-5.32944,56.55591],[-5.3127,56.6188],[-5.24258,56.68687],[-5.18838,56.75806],[-5.21758,56.75103],[-5.56421,56.56572],[-5.65244,56.53198],[-5.7728,56.54102],[-5.86484,56.56187],[-5.93677,56.60571],[-5.9689,56.68989],[-6.05771,56.69214],[-6.13369,56.70669],[-6.13276,56.71802],[-6.03472,56.76392],[-5.87764,56.77964],[-5.73062,56.85308],[-5.86143,56.90269],[-5.85039,56.91841],[-5.73628,56.96064],[-5.59131,57.10234],[-5.56191,57.23271],[-5.63125,57.29395],[-5.65635,57.33408],[-5.79492,57.37881],[-5.81807,57.43608],[-5.80195,57.46802],[-5.75674,57.49922],[-5.68862,57.52354],[-5.58179,57.54678],[-5.67876,57.57168],[-5.71494,57.60107],[-5.74238,57.64365],[-5.74492,57.66831],[-5.69473,57.77822],[-5.66548,57.82354],[-5.60835,57.88135],[-5.34902,57.87808],[-5.31919,57.90361],[-5.28979,57.90459],[-5.15723,57.88135],[-5.1769,57.9064],[-5.39375,58.0436],[-5.41318,58.06973],[-5.35137,58.1437],[-5.34687,58.17666],[-5.35596,58.21191],[-5.33828,58.23872],[-5.26953,58.25142],[-5.05996,58.25015],[-5.0083,58.26265],[-5.03184,58.29829],[-5.08062,58.34517],[-5.09014,58.38452],[-5.07871,58.41929],[-5.07603,58.48926],[-5.0665,58.52021],[-5.01675,58.56655],[-4.97563,58.58032],[-4.92466,58.58838],[-4.80962,58.5729],[-4.76577,58.5542],[-4.71543,58.51001],[-4.67822,58.51357],[-4.53496,58.56157],[-4.49189,58.56846],[-4.43325,58.51284],[-4.18862,58.55723],[-3.85952,58.5771],[-3.66182,58.6063],[-3.45356,58.61689],[-3.25913,58.65],[-3.05308,58.63481],[-3.04619,58.61553],[-3.05698,58.58877],[-3.10967,58.51548],[-3.10112,58.43369],[-3.11289,58.40889],[-3.13677,58.37832],[-3.21235,58.32124],[-3.41099,58.23965],[-3.775,58.0521],[-3.99004,57.95903],[-4.01963,57.91426],[-4.0356,57.852],[-3.90684,57.83965],[-3.85713,57.81855],[-3.88794,57.78691],[-4.07842,57.67705],[-4.13452,57.57773],[-3.98848,57.58125],[-3.86816,57.60034],[-3.62822,57.66226],[-3.40278,57.70825],[-3.29453,57.71016],[-3.08394,57.67349],[-3.03604,57.67231],[-2.94668,57.68926],[-2.8563,57.69229],[-2.24414,57.68086],[-2.07407,57.70239],[-1.96152,57.67666],[-1.86738,57.61235],[-1.77793,57.49375],[-1.78066,57.47402],[-1.83472,57.41997],[-1.93447,57.3522],[-2.02031,57.25889],[-2.04551,57.20854],[-2.06235,57.15347],[-2.08955,57.10254],[-2.26025,56.86333],[-2.42666,56.73071],[-2.50098,56.63657],[-2.59268,56.56157],[-2.68096,56.5144],[-2.7752,56.48296],[-3.04741,56.44937],[-3.12358,56.42529],[-3.21445,56.38394],[-3.30996,56.36348],[-3.198,56.36606],[-3.08701,56.38906],[-2.88516,56.39751],[-2.65273,56.31826],[-2.67427,56.25342],[-2.76758,56.20215],[-2.97979,56.19409],[-3.17822,56.08013],[-3.26777,56.04507],[-3.36226,56.02764],[-3.48042,56.03281],[-3.69512,56.06333],[-3.78906,56.09521],[-3.70415,56.04316],[-3.60781,56.01602],[-3.04873,55.95195],[-3.01509,55.95859],[-2.83687,56.02627],[-2.59932,56.02729],[-2.14707,55.90298],[-2.01685,55.80796],[-1.83027,55.67173],[-1.72876,55.61855],[-1.65537,55.57036],[-1.61016,55.4981],[-1.52256,55.25952],[-1.42266,55.02642],[-1.29175,54.77388],[-1.23242,54.70371],[-1.15439,54.65449],[-0.75933,54.54141],[-0.67139,54.50391],[-0.51812,54.39512],[-0.37036,54.2792],[-0.23286,54.19014],[-0.08437,54.11807],[-0.1563,54.08062],[-0.20557,54.02173],[-0.16875,53.94165],[-0.10825,53.86519],[0.01055,53.74282],[0.11533,53.60928],[0.07671,53.62944],[0.03608,53.64053],[-0.01943,53.63721],[-0.07373,53.64365],[-0.17383,53.68545],[-0.27002,53.73677],[-0.46138,53.71616],[-0.56768,53.72539],[-0.65991,53.72402],[-0.48506,53.69438],[-0.2937,53.69233],[0.12832,53.46826],[0.271,53.3355],[0.35576,53.15996],[0.29805,53.0811],[0.2082,53.03003],[0.12441,52.97158],[0.0459,52.90562],[0.27979,52.80869],[0.33018,52.81162],[0.38193,52.8252],[0.43164,52.85815],[0.51553,52.93838],[0.55879,52.96694],[0.70449,52.97725],[0.82676,52.97109],[0.94854,52.95337],[1.05557,52.95898],[1.27129,52.92456],[1.38213,52.89351],[1.65674,52.75371],[1.71611,52.67725],[1.74336,52.57852],[1.74658,52.46899],[1.70039,52.3689],[1.64736,52.27852],[1.61465,52.16182],[1.59141,52.11978],[1.55898,52.08687],[1.41348,51.99478],[1.3168,51.95693],[1.27598,51.97354],[1.23242,51.97124],[1.22783,51.94912],[1.27383,51.9021],[1.27441,51.84536],[1.18848,51.80337],[1.10117,51.78545],[0.95508,51.80781],[0.75225,51.72959],[0.89805,51.6894],[0.92744,51.64663],[0.89092,51.57144],[0.79922,51.53789],[0.69756,51.52305],[0.59346,51.51948],[0.50723,51.50107],[0.42451,51.46562],[0.52832,51.48447],[0.60029,51.46797],[0.64551,51.40469],[0.68652,51.38657],[0.88936,51.35952],[1.01494,51.35972],[1.25713,51.3751],[1.37344,51.37471],[1.41494,51.36328],[1.41563,51.31084],[1.39756,51.18203],[1.36553,51.15547],[1.04443,51.04727],[0.97861,50.97168],[0.96016,50.92588],[0.77236,50.93398],[0.68438,50.88555],[0.53232,50.85342],[0.41475,50.81919],[0.29971,50.77598],[0.20508,50.76304],[-0.20391,50.81436],[-0.45078,50.81016],[-0.78525,50.76543],[-0.87139,50.7728],[-1.00059,50.81562],[-1.13286,50.84458],[-1.28506,50.85732],[-1.41646,50.89687],[-1.33447,50.8208],[-1.51675,50.74746],[-1.60083,50.73286],[-1.68789,50.73516],[-1.86602,50.71523],[-2.03105,50.72539],[-2.00625,50.67324],[-1.96206,50.62778],[-1.9979,50.60801],[-2.03584,50.60308],[-2.35015,50.6374],[-2.39468,50.63091],[-2.43345,50.59922],[-2.54775,50.61631],[-2.65884,50.66973],[-2.77695,50.70557],[-2.90088,50.72241],[-2.99941,50.7166],[-3.40459,50.63242],[-3.48545,50.54795],[-3.52588,50.42817],[-3.58437,50.32183],[-3.67979,50.23994],[-3.79336,50.22925],[-3.9002,50.28594],[-4.10342,50.34854],[-4.17256,50.39082],[-4.19458,50.39331],[-4.21729,50.37817],[-4.29697,50.35908],[-4.37949,50.3582],[-4.50669,50.34136],[-4.72798,50.29048],[-4.81738,50.25596],[-5.00952,50.16074],[-5.04863,50.13437],[-5.11851,50.03833],[-5.22524,50.02139],[-5.32285,50.08296],[-5.43398,50.10444],[-5.55122,50.0834],[-5.62212,50.05068],[-5.65518,50.07725],[-5.65625,50.13188],[-5.57065,50.19697],[-5.34229,50.24614],[-5.1418,50.37373],[-5.04346,50.45151],[-5.00444,50.49526],[-4.9564,50.52314],[-4.89355,50.53369],[-4.86128,50.58203],[-4.58291,50.77637],[-4.55996,50.82095],[-4.54609,50.90068],[-4.5231,50.97744],[-4.29648,51.02715],[-4.18818,51.18853],[-4.1584,51.20132],[-3.84233,51.23091],[-3.60791,51.22856],[-3.3751,51.19697],[-3.25576,51.19414],[-3.13599,51.20503],[-3.04204,51.24858],[-2.88125,51.40566],[-2.79082,51.4748],[-2.68721,51.53726],[-2.59028,51.60859],[-2.43306,51.74072],[-2.53936,51.69521],[-2.66768,51.623]]],[[[-4.19678,53.32144],[-4.15488,53.30283],[-4.04937,53.30576],[-4.08428,53.26431],[-4.20039,53.21807],[-4.27861,53.17241],[-4.37305,53.13418],[-4.41885,53.17803],[-4.47197,53.17637],[-4.55322,53.26045],[-4.56787,53.38647],[-4.46172,53.41929],[-4.31509,53.41724],[-4.19678,53.32144]]],[[[-5.10542,55.44883],[-5.23149,55.4481],[-5.27705,55.45674],[-5.33149,55.48105],[-5.39268,55.61836],[-5.3708,55.66694],[-5.3457,55.69072],[-5.31812,55.70918],[-5.25161,55.71694],[-5.18545,55.69097],[-5.1604,55.6668],[-5.10498,55.57397],[-5.09473,55.49434],[-5.10542,55.44883]]],[[[-5.77788,56.34434],[-6.17617,56.28872],[-6.31343,56.29365],[-6.32583,56.32095],[-6.29849,56.33916],[-6.18486,56.35688],[-6.13887,56.49063],[-6.31064,56.55215],[-6.31968,56.56943],[-6.30625,56.59878],[-6.28633,56.61187],[-6.18208,56.64297],[-6.13828,56.64985],[-6.10273,56.64565],[-6.02959,56.60981],[-5.94668,56.53452],[-5.83604,56.52256],[-5.76084,56.49067],[-5.77788,56.34434]]],[[[-6.12891,55.93057],[-6.09282,55.80215],[-6.05762,55.72251],[-6.05532,55.69531],[-6.08838,55.65752],[-6.25317,55.60723],[-6.30508,55.60693],[-6.30723,55.61914],[-6.27002,55.67031],[-6.30205,55.72837],[-6.28643,55.77251],[-6.30176,55.78062],[-6.33389,55.77437],[-6.45195,55.70425],[-6.49136,55.69731],[-6.49565,55.71157],[-6.46646,55.76899],[-6.46284,55.80825],[-6.44526,55.83237],[-6.41318,55.85464],[-6.37495,55.87134],[-6.34414,55.87373],[-6.31128,55.85649],[-6.21567,55.90459],[-6.12891,55.93057]]],[[[-5.97007,55.81455],[-5.99092,55.80381],[-6.04155,55.80679],[-6.06035,55.8229],[-6.0707,55.84766],[-6.07197,55.89312],[-6.04131,55.92563],[-5.91177,55.97476],[-5.97031,55.99219],[-5.97266,56.00444],[-5.93906,56.04526],[-5.79961,56.10879],[-5.76226,56.12031],[-5.72515,56.11855],[-5.79722,56.00562],[-5.97007,55.81455]]],[[[-6.21802,54.08872],[-6.30366,54.09487],[-6.36367,54.0771],[-6.40259,54.06064],[-6.44028,54.06362],[-6.54814,54.05728],[-6.6498,54.05864],[-6.66421,54.08477],[-6.64687,54.16343],[-6.66953,54.18472],[-6.7666,54.19561],[-6.80259,54.21436],[-6.85835,54.26865],[-6.86924,54.29404],[-6.87725,54.3291],[-6.93613,54.37432],[-7.00771,54.40669],[-7.04971,54.40825],[-7.1335,54.35537],[-7.20259,54.30181],[-7.17808,54.2749],[-7.15547,54.2395],[-7.19307,54.21411],[-7.30674,54.15601],[-7.32451,54.13345],[-7.35518,54.12124],[-7.40942,54.1373],[-7.54443,54.13359],[-7.60654,54.14385],[-7.67876,54.18667],[-7.85493,54.21528],[-7.88447,54.28379],[-7.91846,54.29658],[-8.11826,54.41426],[-8.14482,54.45352],[-8.11895,54.47695],[-8.04434,54.51245],[-7.7938,54.57124],[-7.75439,54.59492],[-7.74629,54.61582],[-7.81982,54.6397],[-7.88613,54.66606],[-7.90874,54.68335],[-7.9106,54.69834],[-7.87295,54.71787],[-7.79727,54.71929],[-7.7375,54.71045],[-7.68999,54.72803],[-7.60645,54.7457],[-7.55039,54.76797],[-7.5022,54.82544],[-7.45127,54.8771],[-7.446,54.90513],[-7.40142,55.00332],[-7.3769,55.02769],[-7.21865,55.09199],[-7.17861,55.05688],[-7.10063,55.04829],[-7.03076,55.08062],[-6.94717,55.18252],[-6.88896,55.18892],[-6.82485,55.18066],[-6.69883,55.19346],[-6.47505,55.24102],[-6.37529,55.2418],[-6.23423,55.21685],[-6.12915,55.21738],[-6.03579,55.14453],[-5.98574,55.02969],[-5.86919,54.91621],[-5.71685,54.81748],[-5.71074,54.75708],[-5.76519,54.72466],[-5.8791,54.68437],[-5.87861,54.64131],[-5.80347,54.66304],[-5.73862,54.67305],[-5.58252,54.66343],[-5.52793,54.61963],[-5.49019,54.55405],[-5.47041,54.5002],[-5.48389,54.44165],[-5.52588,54.46021],[-5.56855,54.5126],[-5.61597,54.53672],[-5.67109,54.54976],[-5.64609,54.47788],[-5.65596,54.38174],[-5.63188,54.37266],[-5.55781,54.371],[-5.60679,54.27256],[-5.70806,54.24585],[-5.82617,54.23584],[-5.85464,54.20098],[-5.87607,54.15605],[-5.93774,54.08906],[-6.01904,54.05127],[-6.11953,54.05889],[-6.21802,54.08872]]],[[[-1.06558,50.69023],[-1.14937,50.65571],[-1.17583,50.61523],[-1.19609,50.59922],[-1.25146,50.58882],[-1.3063,50.58853],[-1.51533,50.66978],[-1.56343,50.66611],[-1.51567,50.70332],[-1.38584,50.73354],[-1.31279,50.77349],[-1.14424,50.73472],[-1.06558,50.69023]]]]}},{"type":"Feature","properties":{"NAME":"Switzerland","NAME_EN":"Switzerland","ADM0_A3":"CHE","ISO_A3":"CHE","SOVEREIGNT":"Switzerland","TYPE":"Sovereign country"},"geometry":{"type":"MultiPolygon","coordinates":[[[[9.52402,47.52422],[9.55439,47.51113],[9.62588,47.46704],[9.60908,47.3918],[9.52754,47.27075],[9.48428,47.17266],[9.47949,47.09751],[9.4877,47.06226],[9.50234,47.06274],[9.58027,47.05737],[9.61992,47.05747],[9.74502,47.03711],[9.84531,47.00737],[9.86465,46.97598],[9.87773,46.9377],[9.99688,46.88535],[10.1335,46.85151],[10.17979,46.86235],[10.34941,46.98477],[10.41494,46.9644],[10.45459,46.89941],[10.45283,46.86494],[10.40605,46.73486],[10.39795,46.66504],[10.43828,46.61885],[10.44248,46.58286],[10.43066,46.55005],[10.36309,46.54707],[10.27227,46.56484],[10.19551,46.62109],[10.1375,46.61436],[10.08701,46.5999],[10.06123,46.54678],[10.03828,46.4832],[10.04561,46.4479],[10.08193,46.42075],[10.10967,46.36284],[10.12988,46.28799],[10.14521,46.25352],[10.12832,46.23823],[10.08057,46.22798],[10.04102,46.23809],[9.97168,46.32769],[9.93926,46.36182],[9.88447,46.36777],[9.78779,46.34604],[9.63945,46.2959],[9.57959,46.29609],[9.52871,46.3062],[9.48105,46.34878],[9.44063,46.43081],[9.42764,46.48232],[9.39932,46.48066],[9.30439,46.49556],[9.26016,46.4752],[9.25977,46.39126],[9.25107,46.28677],[9.20342,46.21924],[9.071,46.10244],[9.02236,46.05146],[9.00303,46.01489],[8.99893,45.98311],[9.01914,45.92812],[9.04668,45.87559],[9.02373,45.8457],[8.95371,45.83003],[8.9043,45.86196],[8.88516,45.9187],[8.77803,45.99619],[8.82676,46.06104],[8.81855,46.07715],[8.6417,46.11079],[8.56543,46.15981],[8.4584,46.2459],[8.43848,46.28286],[8.44297,46.40278],[8.43682,46.43188],[8.42256,46.44604],[8.3707,46.44512],[8.29854,46.40342],[8.23193,46.34121],[8.0957,46.27104],[8.08154,46.25601],[8.12725,46.1876],[8.1252,46.16094],[8.01426,46.0519],[7.99316,46.01592],[7.85234,45.94746],[7.78789,45.92183],[7.59258,45.97222],[7.53857,45.97817],[7.45156,45.94443],[7.32793,45.91235],[7.129,45.88042],[7.05576,45.90381],[7.02109,45.92578],[7.00391,45.95884],[6.95371,46.01714],[6.89727,46.05176],[6.85801,46.0894],[6.80566,46.13066],[6.77207,46.16514],[6.8168,46.2752],[6.78418,46.31396],[6.76738,46.36919],[6.77607,46.40664],[6.75811,46.41577],[6.57822,46.43735],[6.42891,46.43052],[6.32188,46.3937],[6.23467,46.33262],[6.22422,46.31943],[6.22959,46.30845],[6.27295,46.25225],[6.19941,46.19307],[6.08662,46.14702],[6.00664,46.14233],[5.97148,46.15122],[5.97002,46.2147],[6.03613,46.23809],[6.0959,46.27939],[6.11592,46.33765],[6.12324,46.37861],[6.06025,46.42817],[6.06797,46.45854],[6.10703,46.51606],[6.12969,46.56699],[6.16074,46.61104],[6.28516,46.68306],[6.41016,46.75542],[6.429,46.83228],[6.43857,46.92588],[6.45625,46.94834],[6.6248,47.00435],[6.66689,47.02651],[6.68809,47.05825],[6.8207,47.16318],[6.95205,47.26719],[6.97852,47.30205],[7.00059,47.32251],[7.00059,47.33945],[6.98408,47.35254],[6.92148,47.36123],[6.90039,47.39424],[6.96836,47.45322],[7.05342,47.48936],[7.13604,47.48984],[7.16924,47.47324],[7.16748,47.45371],[7.20312,47.43271],[7.26572,47.42578],[7.34316,47.43311],[7.42002,47.45518],[7.46738,47.50767],[7.49492,47.54736],[7.61563,47.59272],[7.69805,47.56987],[7.92705,47.56387],[8.09375,47.57617],[8.19824,47.60693],[8.32783,47.60693],[8.41475,47.5896],[8.43008,47.59214],[8.454,47.59619],[8.47764,47.6127],[8.55947,47.62402],[8.57051,47.63779],[8.56709,47.6519],[8.55234,47.65913],[8.45176,47.65181],[8.41328,47.6627],[8.40342,47.68779],[8.43574,47.73135],[8.50986,47.76689],[8.57266,47.77563],[8.61787,47.76611],[8.72832,47.70005],[8.75479,47.69805],[8.77012,47.70991],[8.79307,47.71655],[8.83115,47.70361],[8.87402,47.6627],[8.88115,47.6564],[9.12754,47.6707],[9.18281,47.6707],[9.35,47.59893],[9.52402,47.52422]]]]}},{"type":"Feature","properties":{"NAME":"Netherlands","NAME_EN":"Netherlands","ADM0_A3":"NLD","ISO_A3":"NLD","SOVEREIGNT":"Netherlands","TYPE":"Country"},"geometry":{"type":"MultiPolygon","coordinates":[[[[5.99395,50.75044],[5.89246,50.75256],[5.79736,50.75454],[5.74707,50.75957],[5.69365,50.77466],[5.69355,50.77476],[5.66914,50.80596],[5.63945,50.8436],[5.64756,50.86665],[5.73662,50.93213],[5.75,50.95024],[5.74082,50.95991],[5.7498,50.98877],[5.81826,51.08643],[5.82715,51.12563],[5.79648,51.15308],[5.75234,51.16948],[5.60879,51.19844],[5.54043,51.23931],[5.50879,51.275],[5.47686,51.28506],[5.42979,51.273],[5.31084,51.25972],[5.21416,51.27896],[5.0999,51.34648],[5.07344,51.40684],[5.05947,51.45312],[5.03096,51.46909],[4.99258,51.44536],[4.94395,51.40776],[4.84805,51.40327],[4.8207,51.41206],[4.81602,51.43281],[4.81055,51.45273],[4.78418,51.47739],[4.75566,51.49111],[4.63398,51.42173],[4.58877,51.42192],[4.53164,51.44858],[4.50342,51.47471],[4.44092,51.45981],[4.38477,51.42759],[4.404,51.36709],[4.37373,51.35601],[4.30449,51.36152],[4.22617,51.38647],[4.13887,51.40151],[4.00654,51.44321],[3.82188,51.40937],[3.69355,51.4499],[3.58691,51.45391],[3.52051,51.48618],[3.44893,51.54077],[3.49961,51.57666],[3.54863,51.58911],[3.74395,51.59604],[3.88604,51.57422],[4.14131,51.45576],[4.20576,51.45669],[4.27412,51.47163],[4.23936,51.50391],[4.17549,51.51929],[4.08047,51.55112],[4.00479,51.59585],[4.18262,51.6103],[4.15801,51.63345],[4.13457,51.6729],[3.94688,51.81055],[3.97891,51.8478],[4.02607,51.92773],[4.08486,51.99409],[4.13174,52.01191],[4.20879,52.05898],[4.37627,52.19683],[4.48281,52.30918],[4.56211,52.44258],[4.67832,52.80977],[4.7127,52.87212],[4.76875,52.94131],[4.83906,52.92827],[4.88799,52.90835],[5.06123,52.96064],[5.3584,53.09648],[5.446,53.21406],[5.53203,53.2687],[5.87354,53.3752],[6.06221,53.40708],[6.35322,53.41528],[6.56357,53.43428],[6.81621,53.44116],[6.9124,53.37539],[6.96816,53.32729],[7.05801,53.30059],[7.19727,53.28228],[7.18896,53.18721],[7.18994,52.99951],[7.17949,52.96621],[7.11709,52.88701],[7.05088,52.74478],[7.03301,52.65137],[7.01318,52.63354],[6.74844,52.63408],[6.71074,52.61787],[6.70537,52.59766],[6.71875,52.57358],[6.7124,52.54966],[6.6916,52.53018],[6.70293,52.49922],[6.74883,52.46401],[6.83252,52.44229],[6.92207,52.44028],[6.96816,52.44409],[7.00186,52.41899],[7.03516,52.38022],[7.03262,52.33149],[7.01963,52.26602],[6.97725,52.20552],[6.85508,52.13579],[6.80039,52.11123],[6.74902,52.09868],[6.72451,52.08022],[6.71299,52.05688],[6.71563,52.03618],[6.80244,51.98018],[6.80039,51.96738],[6.7752,51.93828],[6.7418,51.91089],[6.51758,51.85396],[6.425,51.8584],[6.37217,51.83003],[6.35566,51.82466],[6.29707,51.85073],[6.1665,51.88076],[6.11719,51.87041],[6.08984,51.85396],[6.00762,51.83398],[5.94873,51.80269],[5.94854,51.7624],[6.05273,51.65825],[6.08936,51.63779],[6.09111,51.59893],[6.1416,51.5501],[6.19326,51.48892],[6.19883,51.45],[6.19287,51.4106],[6.16621,51.35483],[6.07588,51.22412],[6.0748,51.19902],[6.08242,51.17998],[6.11338,51.17471],[6.13691,51.16484],[6.12998,51.14741],[5.96104,51.05669],[5.93926,51.04082],[5.86836,51.04531],[5.85752,51.03013],[5.86719,51.00566],[5.89473,50.98423],[5.95508,50.97295],[6.00684,50.94995],[6.04844,50.90488],[5.99395,50.75044]]],[[[4.22617,51.38647],[4.21143,51.34873],[4.17256,51.30708],[4.04004,51.24707],[3.90205,51.20767],[3.83076,51.2126],[3.78193,51.2332],[3.75566,51.25483],[3.68184,51.27568],[3.58027,51.28618],[3.51709,51.26362],[3.47197,51.24224],[3.43252,51.24575],[3.40283,51.26362],[3.38008,51.29111],[3.3501,51.37769],[3.42578,51.39351],[3.58945,51.39941],[3.7165,51.36914],[3.8834,51.35449],[4.01104,51.39595],[4.11152,51.36064],[4.22617,51.38647]]],[[[5.9293,53.45884],[5.73203,53.44263],[5.66533,53.45488],[5.6543,53.4665],[5.70811,53.47339],[5.87627,53.4751],[5.92822,53.46499],[5.9293,53.45884]]],[[[5.10859,53.30801],[4.92373,53.23457],[4.90791,53.24624],[5.02705,53.31021],[5.10859,53.30801]]],[[[5.32578,53.38574],[5.23262,53.37778],[5.19023,53.3918],[5.41514,53.43145],[5.55742,53.44355],[5.58262,53.43809],[5.32578,53.38574]]],[[[4.88613,53.0707],[4.78711,52.9998],[4.72676,53.01963],[4.70918,53.03604],[4.73984,53.09131],[4.88643,53.1833],[4.88613,53.0707]]],[[[3.94912,51.73945],[4.04678,51.68491],[4.06758,51.66748],[4.0751,51.64878],[3.95098,51.62705],[3.81904,51.69399],[3.73184,51.67822],[3.69902,51.70991],[3.69854,51.72969],[3.78906,51.74644],[3.94912,51.73945]]]]}},{"type":"Feature","properties":{"NAME":"Luxembourg","NAME_EN":"Luxembourg","ADM0_A3":"LUX","ISO_A3":"LUX","SOVEREIGNT":"Luxembourg","TYPE":"Sovereign country"},"geometry":{"type":"MultiPolygon","coordinates":[[[[6.1165,50.121],[6.1083,50.09424],[6.10977,50.03437],[6.13818,49.97432],[6.20488,49.91514],[6.25605,49.87217],[6.32461,49.83789],[6.44092,49.80532],[6.4873,49.79849],[6.49375,49.75439],[6.48477,49.70781],[6.44463,49.68203],[6.40674,49.64497],[6.37832,49.59961],[6.34844,49.5127],[6.34434,49.45273],[6.27734,49.47754],[6.24219,49.49434],[6.18105,49.49893],[6.11992,49.48521],[6.07412,49.45464],[6.01143,49.44546],[5.95947,49.45464],[5.92891,49.47754],[5.90137,49.48975],[5.82344,49.50508],[5.78975,49.53828],[5.81543,49.55381],[5.8376,49.57832],[5.85654,49.61284],[5.88037,49.64478],[5.80371,49.73218],[5.78799,49.75889],[5.725,49.8083],[5.72578,49.83335],[5.74082,49.85718],[5.73525,49.87563],[5.74404,49.91963],[5.78809,49.96123],[5.81738,50.0127],[5.86689,50.08281],[5.97627,50.16719],[6.05479,50.1543],[6.08906,50.15459],[6.11006,50.12378],[6.1165,50.121]]]]}},{"type":"Feature","properties":{"NAME":"Ireland","NAME_EN":"Ireland","ADM0_A3":"IRL","ISO_A3":"IRL","SOVEREIGNT":"Ireland","TYPE":"Sovereign country"},"geometry":{"type":"MultiPolygon","coordinates":[[[[-7.21865,55.09199],[-7.3769,55.02769],[-7.40142,55.00332],[-7.446,54.90513],[-7.45127,54.8771],[-7.5022,54.82544],[-7.55039,54.76797],[-7.60645,54.7457],[-7.68999,54.72803],[-7.7375,54.71045],[-7.79727,54.71929],[-7.87295,54.71787],[-7.9106,54.69834],[-7.90874,54.68335],[-7.88613,54.66606],[-7.81982,54.6397],[-7.74629,54.61582],[-7.75439,54.59492],[-7.7938,54.57124],[-8.04434,54.51245],[-8.11895,54.47695],[-8.14482,54.45352],[-8.11826,54.41426],[-7.91846,54.29658],[-7.88447,54.28379],[-7.85493,54.21528],[-7.67876,54.18667],[-7.60654,54.14385],[-7.54443,54.13359],[-7.40942,54.1373],[-7.35518,54.12124],[-7.32451,54.13345],[-7.30674,54.15601],[-7.19307,54.21411],[-7.15547,54.2395],[-7.17808,54.2749],[-7.20259,54.30181],[-7.1335,54.35537],[-7.04971,54.40825],[-7.00771,54.40669],[-6.93613,54.37432],[-6.87725,54.3291],[-6.86924,54.29404],[-6.85835,54.26865],[-6.80259,54.21436],[-6.7666,54.19561],[-6.66953,54.18472],[-6.64687,54.16343],[-6.66421,54.08477],[-6.6498,54.05864],[-6.54814,54.05728],[-6.44028,54.06362],[-6.40259,54.06064],[-6.36367,54.0771],[-6.30366,54.09487],[-6.21802,54.08872],[-6.17573,54.05352],[-6.15693,54.01724],[-6.23066,54.00361],[-6.30762,54.01104],[-6.34517,53.98721],[-6.34761,53.94131],[-6.32158,53.88218],[-6.27012,53.84023],[-6.229,53.7457],[-6.19487,53.64087],[-6.14185,53.57754],[-6.13096,53.49893],[-6.13877,53.4603],[-6.1291,53.39087],[-6.15166,53.36641],[-6.13472,53.30122],[-6.07227,53.16631],[-6.04502,53.09116],[-6.02739,52.9271],[-6.07148,52.86563],[-6.13066,52.80728],[-6.16934,52.73813],[-6.19922,52.66348],[-6.21724,52.54312],[-6.34541,52.402],[-6.39995,52.36694],[-6.46318,52.34536],[-6.325,52.24668],[-6.43794,52.20269],[-6.56108,52.18882],[-6.69731,52.21353],[-6.78223,52.2105],[-6.85972,52.17856],[-6.89023,52.15923],[-6.91465,52.16855],[-6.96577,52.24951],[-7.00327,52.16592],[-7.08179,52.13931],[-7.21621,52.14497],[-7.44087,52.12271],[-7.52729,52.09888],[-7.56318,52.06162],[-7.58984,52.01855],[-7.6249,51.99312],[-7.66455,51.97974],[-7.83799,51.948],[-7.87217,51.9353],[-7.95249,51.86577],[-8.05781,51.82559],[-8.14502,51.81353],[-8.22246,51.854],[-8.2543,51.87832],[-8.29023,51.89067],[-8.40918,51.88877],[-8.37163,51.87627],[-8.34736,51.84771],[-8.3356,51.79297],[-8.34912,51.73931],[-8.40781,51.71206],[-8.47783,51.70703],[-8.58828,51.65137],[-8.73447,51.63618],[-8.81343,51.58491],[-9.29648,51.49824],[-9.32388,51.49722],[-9.39058,51.51929],[-9.46289,51.52905],[-9.53486,51.52217],[-9.7373,51.47373],[-9.83535,51.48335],[-9.71035,51.60371],[-9.54238,51.66445],[-9.5249,51.6811],[-9.57983,51.68926],[-9.89902,51.64707],[-10.00991,51.61113],[-10.12075,51.60068],[-10.06943,51.65557],[-9.92642,51.73071],[-9.84971,51.76611],[-9.80288,51.78013],[-9.74951,51.82427],[-9.59883,51.87441],[-10.08423,51.771],[-10.21172,51.78359],[-10.24175,51.81245],[-10.34106,51.79893],[-10.37871,51.86875],[-10.23159,51.97451],[-10.14585,52.02002],[-10.04404,52.04458],[-9.94604,52.07983],[-9.90967,52.12295],[-9.95581,52.13667],[-10.24951,52.12573],[-10.39023,52.13491],[-10.38262,52.16909],[-10.35669,52.20693],[-10.21094,52.27168],[-10.13208,52.28208],[-10.06177,52.27593],[-9.99312,52.25933],[-9.9373,52.23765],[-9.77212,52.2501],[-9.84106,52.29146],[-9.85322,52.37549],[-9.90605,52.40371],[-9.83848,52.44268],[-9.76113,52.46636],[-9.63223,52.54692],[-9.58633,52.55918],[-9.33125,52.57876],[-9.05615,52.62114],[-8.78345,52.67964],[-8.92329,52.7123],[-8.99028,52.75542],[-9.0979,52.66826],[-9.17539,52.63491],[-9.39424,52.61709],[-9.46348,52.6269],[-9.56104,52.65396],[-9.59136,52.64365],[-9.61953,52.62275],[-9.76436,52.57998],[-9.9166,52.56973],[-9.7396,52.64819],[-9.51499,52.78115],[-9.46489,52.82319],[-9.39365,52.89624],[-9.41572,52.92876],[-9.46196,52.94727],[-9.29922,53.09756],[-9.24189,53.12485],[-9.1376,53.12925],[-9.06113,53.15308],[-9.02744,53.15317],[-8.99717,53.16206],[-8.93013,53.20708],[-9.03354,53.23574],[-9.14033,53.25049],[-9.47075,53.23486],[-9.51421,53.23823],[-9.55518,53.25205],[-9.58174,53.27197],[-9.60176,53.32305],[-9.62598,53.33447],[-9.70059,53.33447],[-9.77407,53.31885],[-9.82539,53.32036],[-9.87578,53.34272],[-9.79541,53.39497],[-9.89902,53.40728],[-10.00391,53.39702],[-10.09126,53.41284],[-10.09399,53.44561],[-10.05439,53.47832],[-10.10625,53.50933],[-10.11699,53.54854],[-10.06172,53.56782],[-10.00137,53.56143],[-9.87827,53.59043],[-9.72065,53.60449],[-9.85586,53.63311],[-9.90972,53.65762],[-9.9123,53.69512],[-9.90161,53.7272],[-9.74507,53.78149],[-9.57822,53.80542],[-9.59053,53.84116],[-9.57886,53.87983],[-9.74751,53.89102],[-9.91406,53.86372],[-9.89624,53.9376],[-9.85635,54.0043],[-9.84849,54.04829],[-9.85645,54.09536],[-9.93447,54.07524],[-9.9436,54.1416],[-9.9771,54.18711],[-10.09268,54.15576],[-10.0897,54.21582],[-10.0564,54.25781],[-9.99595,54.27603],[-9.93594,54.26812],[-9.82456,54.2689],[-9.71714,54.30044],[-9.5623,54.30854],[-9.31553,54.29863],[-9.1459,54.20962],[-9.1021,54.22554],[-9.03428,54.28179],[-9.00244,54.28799],[-8.74678,54.26348],[-8.58804,54.2311],[-8.54556,54.24121],[-8.56846,54.30361],[-8.62314,54.34687],[-8.55444,54.40356],[-8.471,54.44194],[-8.41523,54.46108],[-8.28652,54.48486],[-8.23037,54.50728],[-8.19297,54.58013],[-8.13345,54.64082],[-8.45654,54.60928],[-8.76392,54.6812],[-8.71519,54.73203],[-8.65029,54.76089],[-8.53828,54.78296],[-8.52769,54.80947],[-8.471,54.83154],[-8.37729,54.88945],[-8.41172,54.96509],[-8.39326,55.02041],[-8.32578,55.05645],[-8.30469,55.1082],[-8.27461,55.14629],[-8.1377,55.15991],[-8.0061,55.19531],[-7.95859,55.19189],[-7.80317,55.20005],[-7.75054,55.18579],[-7.76255,55.24834],[-7.66709,55.25649],[-7.62979,55.24399],[-7.61338,55.19966],[-7.57002,55.17139],[-7.55664,55.12222],[-7.58569,55.08423],[-7.63428,55.05498],[-7.58984,55.02505],[-7.65874,54.97095],[-7.58437,54.99399],[-7.47842,55.04697],[-7.48394,55.09028],[-7.50195,55.14473],[-7.53145,55.19385],[-7.51787,55.24795],[-7.4583,55.28179],[-7.30176,55.29878],[-7.36597,55.36021],[-7.30879,55.36582],[-7.24668,55.35303],[-7.15532,55.30518],[-7.06025,55.26763],[-6.96167,55.23789],[-7.0564,55.17832],[-7.17285,55.13701],[-7.21865,55.09199]]]]}},{"type":"Feature","properties":{"NAME":"Germany","NAME_EN":"Germany","ADM0_A3":"DEU","ISO_A3":"DEU","SOVEREIGNT":"Germany","TYPE":"Sovereign country"},"geometry":{"type":"MultiPolygon","coordinates":[[[[9.52402,47.52422],[9.35,47.59893],[9.18281,47.6707],[9.12754,47.6707],[8.88115,47.6564],[8.87402,47.6627],[8.83115,47.70361],[8.79307,47.71655],[8.77012,47.70991],[8.75479,47.69805],[8.72832,47.70005],[8.61787,47.76611],[8.57266,47.77563],[8.50986,47.76689],[8.43574,47.73135],[8.40342,47.68779],[8.41328,47.6627],[8.45176,47.65181],[8.55234,47.65913],[8.56709,47.6519],[8.57051,47.63779],[8.55947,47.62402],[8.47764,47.6127],[8.454,47.59619],[8.43008,47.59214],[8.41475,47.5896],[8.32783,47.60693],[8.19824,47.60693],[8.09375,47.57617],[7.92705,47.56387],[7.69805,47.56987],[7.61563,47.59272],[7.56543,47.60654],[7.52939,47.67388],[7.53857,47.77363],[7.59326,47.90566],[7.6085,48.00259],[7.58418,48.06431],[7.6166,48.15679],[7.70566,48.28003],[7.76514,48.41001],[7.79482,48.54683],[7.83799,48.63604],[7.92275,48.69854],[8.12402,48.87329],[8.14033,48.88643],[8.13486,48.97358],[8.08066,48.98589],[8.00127,49.01094],[7.79922,49.04189],[7.61094,49.06177],[7.52549,49.08638],[7.45059,49.1522],[7.4042,49.15308],[7.31338,49.12954],[7.1999,49.11362],[7.11738,49.12754],[7.06572,49.12485],[7.03672,49.1127],[7.02217,49.12344],[7.00146,49.17988],[6.9583,49.19463],[6.89121,49.20752],[6.84951,49.20195],[6.8207,49.17393],[6.77627,49.15415],[6.73545,49.1606],[6.60762,49.29087],[6.57471,49.31968],[6.56631,49.34619],[6.53428,49.39468],[6.45811,49.44287],[6.38223,49.45815],[6.34434,49.45273],[6.34844,49.5127],[6.37832,49.59961],[6.40674,49.64497],[6.44463,49.68203],[6.48477,49.70781],[6.49375,49.75439],[6.4873,49.79849],[6.44092,49.80532],[6.32461,49.83789],[6.25605,49.87217],[6.20488,49.91514],[6.13818,49.97432],[6.10977,50.03437],[6.1083,50.09424],[6.1165,50.121],[6.12129,50.13936],[6.1751,50.23267],[6.36445,50.31616],[6.34365,50.40024],[6.34092,50.45176],[6.29492,50.4855],[6.20303,50.49912],[6.17871,50.52251],[6.16846,50.54536],[6.23594,50.59668],[6.15449,50.63726],[6.11943,50.67925],[6.00596,50.73223],[5.99395,50.75044],[6.04844,50.90488],[6.00684,50.94995],[5.95508,50.97295],[5.89473,50.98423],[5.86719,51.00566],[5.85752,51.03013],[5.86836,51.04531],[5.93926,51.04082],[5.96104,51.05669],[6.12998,51.14741],[6.13691,51.16484],[6.11338,51.17471],[6.08242,51.17998],[6.0748,51.19902],[6.07588,51.22412],[6.16621,51.35483],[6.19287,51.4106],[6.19883,51.45],[6.19326,51.48892],[6.1416,51.5501],[6.09111,51.59893],[6.08936,51.63779],[6.05273,51.65825],[5.94854,51.7624],[5.94873,51.80269],[6.00762,51.83398],[6.08984,51.85396],[6.11719,51.87041],[6.1665,51.88076],[6.29707,51.85073],[6.35566,51.82466],[6.37217,51.83003],[6.425,51.8584],[6.51758,51.85396],[6.7418,51.91089],[6.7752,51.93828],[6.80039,51.96738],[6.80244,51.98018],[6.71563,52.03618],[6.71299,52.05688],[6.72451,52.08022],[6.74902,52.09868],[6.80039,52.11123],[6.85508,52.13579],[6.97725,52.20552],[7.01963,52.26602],[7.03262,52.33149],[7.03516,52.38022],[7.00186,52.41899],[6.96816,52.44409],[6.92207,52.44028],[6.83252,52.44229],[6.74883,52.46401],[6.70293,52.49922],[6.6916,52.53018],[6.7124,52.54966],[6.71875,52.57358],[6.70537,52.59766],[6.71074,52.61787],[6.74844,52.63408],[7.01318,52.63354],[7.03301,52.65137],[7.05088,52.74478],[7.11709,52.88701],[7.17949,52.96621],[7.18994,52.99951],[7.18896,53.18721],[7.19727,53.28228],[7.15205,53.32695],[7.05332,53.37583],[7.07432,53.47764],[7.10713,53.55698],[7.20645,53.65454],[7.28525,53.68135],[7.6292,53.69727],[8.00928,53.69072],[8.16709,53.54341],[8.1085,53.46768],[8.20078,53.43242],[8.24521,53.44531],[8.279,53.51118],[8.30156,53.58413],[8.33389,53.6062],[8.45137,53.55171],[8.49268,53.51436],[8.49521,53.39424],[8.53848,53.55688],[8.50625,53.67075],[8.52842,53.7811],[8.57559,53.83848],[8.61895,53.875],[8.89775,53.83569],[9.20557,53.85596],[9.32197,53.81348],[9.58535,53.60049],[9.67314,53.56562],[9.78398,53.55464],[9.63125,53.6002],[9.31201,53.85913],[9.21641,53.89121],[9.06963,53.90093],[8.97813,53.92622],[8.92041,53.96533],[8.90352,54.00029],[8.90664,54.26079],[8.85156,54.29956],[8.78037,54.31304],[8.73604,54.29521],[8.64492,54.29497],[8.62578,54.35396],[8.64805,54.39766],[8.83115,54.42754],[8.95186,54.46758],[8.95723,54.53833],[8.88096,54.59395],[8.78965,54.69595],[8.68232,54.79185],[8.67031,54.90342],[8.6707,54.90332],[8.85723,54.90112],[8.90293,54.89692],[9.18584,54.84468],[9.25498,54.80801],[9.34199,54.8063],[9.49873,54.84043],[9.61582,54.85542],[9.66123,54.83438],[9.725,54.82554],[9.73975,54.82554],[9.7459,54.80718],[9.89229,54.78062],[9.95381,54.73828],[10.02217,54.67393],[10.02881,54.5813],[9.94131,54.51465],[9.86865,54.47246],[10.14346,54.48843],[10.1708,54.4502],[10.2124,54.40894],[10.36045,54.43833],[10.73154,54.31626],[10.95596,54.37568],[11.01338,54.37915],[11.06436,54.28052],[11.00859,54.18115],[10.81074,54.07515],[10.85459,54.00981],[10.91777,53.99531],[11.1043,54.00918],[11.39961,53.94463],[11.46113,53.96475],[11.70059,54.11353],[11.79629,54.14546],[12.11133,54.16831],[12.16865,54.22588],[12.29629,54.28379],[12.37852,54.34702],[12.57539,54.46738],[12.7791,54.4457],[12.89805,54.42266],[13.02861,54.41104],[13.14746,54.28271],[13.44805,54.14087],[13.72422,54.15322],[13.82227,54.01904],[13.86553,53.85337],[13.95039,53.80137],[14.025,53.76743],[14.25,53.73188],[14.25889,53.72964],[14.26611,53.70713],[14.27988,53.62476],[14.29873,53.55645],[14.41455,53.2835],[14.4123,53.21675],[14.41094,53.19902],[14.36855,53.10557],[14.29316,53.02676],[14.19365,52.98232],[14.13887,52.93286],[14.12861,52.87822],[14.25371,52.78252],[14.51406,52.64561],[14.61943,52.52852],[14.56973,52.4311],[14.55459,52.35967],[14.57393,52.31416],[14.61563,52.27764],[14.67988,52.25],[14.70537,52.20747],[14.69238,52.15005],[14.70459,52.11021],[14.75254,52.08184],[14.74814,52.0708],[14.7248,52.03086],[14.69297,51.95801],[14.6749,51.90483],[14.60166,51.83237],[14.62393,51.7708],[14.68135,51.69819],[14.7249,51.66172],[14.73867,51.62715],[14.71094,51.54492],[14.72471,51.52388],[14.90596,51.46333],[14.93555,51.43535],[14.95312,51.37715],[15.0166,51.25273],[14.96387,51.09512],[14.91748,51.00874],[14.81426,50.87163],[14.80938,50.85898],[14.79746,50.84233],[14.7665,50.81831],[14.72334,50.8147],[14.6582,50.83262],[14.61357,50.85557],[14.62383,50.91475],[14.59521,50.9186],[14.55967,50.95493],[14.5457,50.99395],[14.50732,51.00986],[14.36729,51.02627],[14.31973,51.03779],[14.2832,51.02949],[14.25586,51.00186],[14.27334,50.9769],[14.29941,50.95259],[14.37705,50.91406],[14.36904,50.89873],[14.20176,50.86123],[14.09648,50.82275],[13.99844,50.80112],[13.89854,50.76128],[13.70137,50.7165],[13.55674,50.70464],[13.52656,50.69282],[13.47256,50.61694],[13.43613,50.60107],[13.40117,50.60933],[13.37461,50.62173],[13.34102,50.61143],[13.30605,50.58633],[13.26953,50.57642],[13.2377,50.57676],[13.18115,50.5105],[13.01641,50.49038],[12.99707,50.45605],[12.9668,50.41621],[12.94268,50.40645],[12.86826,50.42222],[12.76543,50.43096],[12.70645,50.40913],[12.63555,50.39707],[12.54902,50.39341],[12.45264,50.3498],[12.35859,50.27324],[12.30566,50.20571],[12.27734,50.18145],[12.23115,50.24487],[12.1748,50.28838],[12.13486,50.31094],[12.09922,50.31099],[12.08984,50.30176],[12.08975,50.26855],[12.12783,50.21343],[12.175,50.17583],[12.18252,50.14805],[12.20781,50.09751],[12.27646,50.04233],[12.38418,49.99858],[12.45762,49.95552],[12.51201,49.8958],[12.5125,49.87744],[12.49756,49.85308],[12.47188,49.83008],[12.4502,49.80015],[12.39053,49.73965],[12.4082,49.71318],[12.45703,49.67979],[12.50029,49.6397],[12.55576,49.57485],[12.63203,49.46123],[12.68115,49.4145],[12.74785,49.36621],[12.81338,49.32935],[12.9167,49.33047],[13.02373,49.26011],[13.14053,49.15835],[13.22783,49.11167],[13.28877,49.09746],[13.33906,49.06079],[13.38369,49.00811],[13.40117,48.97759],[13.44072,48.95557],[13.54766,48.95967],[13.68496,48.87671],[13.76992,48.81597],[13.81475,48.76694],[13.80293,48.74751],[13.79746,48.68643],[13.79883,48.62168],[13.78535,48.58745],[13.72393,48.54238],[13.69219,48.53276],[13.6752,48.52305],[13.48662,48.58184],[13.47168,48.57183],[13.45986,48.56455],[13.40938,48.39414],[13.37461,48.36138],[13.32285,48.33125],[13.21523,48.3019],[13.14043,48.28994],[13.08213,48.2751],[12.89746,48.20371],[12.81426,48.16084],[12.76035,48.10698],[12.76006,48.07598],[12.8499,47.98481],[12.95352,47.89062],[12.9542,47.80776],[12.9083,47.7458],[12.89766,47.72187],[12.92813,47.71284],[12.98555,47.70942],[13.03359,47.69873],[13.0541,47.65513],[13.04795,47.57915],[13.03154,47.50801],[13.01436,47.47808],[12.96807,47.47568],[12.87891,47.50645],[12.80938,47.54219],[12.78281,47.56416],[12.78115,47.59043],[12.79619,47.60703],[12.77139,47.6394],[12.68584,47.66934],[12.59424,47.6563],[12.52656,47.63613],[12.48291,47.6373],[12.43574,47.66611],[12.36318,47.68818],[12.26836,47.70273],[12.20928,47.71826],[12.19688,47.70908],[12.20381,47.64673],[12.18564,47.61953],[11.7168,47.5835],[11.57393,47.54976],[11.46992,47.5061],[11.39297,47.48716],[11.37412,47.46025],[11.29795,47.4249],[11.21191,47.41362],[11.19121,47.4252],[11.13604,47.40889],[11.04199,47.39312],[10.98086,47.39814],[10.95215,47.42671],[10.89395,47.47046],[10.87061,47.50078],[10.87305,47.52021],[10.7416,47.52412],[10.65869,47.54722],[10.48281,47.5418],[10.43945,47.55156],[10.43037,47.54106],[10.40391,47.41699],[10.36914,47.36606],[10.31279,47.31343],[10.24063,47.28413],[10.18301,47.27881],[10.18574,47.31719],[10.20029,47.36343],[10.15879,47.37427],[10.09648,47.37959],[10.06631,47.39336],[10.07422,47.42852],[10.05986,47.44907],[10.03408,47.47358],[9.97158,47.50532],[9.83916,47.55229],[9.74893,47.57554],[9.71514,47.55078],[9.65059,47.52588],[9.54893,47.53403],[9.52402,47.52422]]]]}},{"type":"Feature","properties":{"NAME":"France","NAME_EN":"France","ADM0_A3":"FRA","ISO_A3":"-99","SOVEREIGNT":"France","TYPE":"Country"},"geometry":{"type":"MultiPolygon","coordinates":[[[[7.61563,47.59272],[7.49492,47.54736],[7.46738,47.50767],[7.42002,47.45518],[7.34316,47.43311],[7.26572,47.42578],[7.20312,47.43271],[7.16748,47.45371],[7.16924,47.47324],[7.13604,47.48984],[7.05342,47.48936],[6.96836,47.45322],[6.90039,47.39424],[6.92148,47.36123],[6.98408,47.35254],[7.00059,47.33945],[7.00059,47.32251],[6.97852,47.30205],[6.95205,47.26719],[6.8207,47.16318],[6.68809,47.05825],[6.66689,47.02651],[6.6248,47.00435],[6.45625,46.94834],[6.43857,46.92588],[6.429,46.83228],[6.41016,46.75542],[6.28516,46.68306],[6.16074,46.61104],[6.12969,46.56699],[6.10703,46.51606],[6.06797,46.45854],[6.06025,46.42817],[6.12324,46.37861],[6.11592,46.33765],[6.0959,46.27939],[6.03613,46.23809],[5.97002,46.2147],[5.97148,46.15122],[6.00664,46.14233],[6.08662,46.14702],[6.19941,46.19307],[6.27295,46.25225],[6.22959,46.30845],[6.22422,46.31943],[6.23467,46.33262],[6.32188,46.3937],[6.42891,46.43052],[6.57822,46.43735],[6.75811,46.41577],[6.77607,46.40664],[6.76738,46.36919],[6.78418,46.31396],[6.8168,46.2752],[6.77207,46.16514],[6.80566,46.13066],[6.85801,46.0894],[6.89727,46.05176],[6.95371,46.01714],[7.00391,45.95884],[7.02109,45.92578],[6.94082,45.86836],[6.80449,45.81455],[6.78916,45.78008],[6.79092,45.74087],[6.80625,45.71001],[6.88145,45.67036],[6.9624,45.58057],[7.01367,45.50049],[7.12607,45.42368],[7.15342,45.40093],[7.14639,45.38174],[7.1168,45.34902],[7.07832,45.23994],[7.03242,45.22261],[6.98125,45.21558],[6.84229,45.13564],[6.78037,45.14531],[6.69229,45.14429],[6.62773,45.11797],[6.63477,45.06816],[6.69141,45.02261],[6.72471,44.973],[6.73818,44.92139],[6.80107,44.88315],[6.88936,44.8603],[6.93984,44.85874],[6.97285,44.84502],[6.99268,44.82729],[7.03066,44.7167],[7.00791,44.68896],[6.96035,44.67715],[6.93193,44.63164],[6.8752,44.56455],[6.84297,44.51069],[6.87861,44.46328],[6.89385,44.42817],[6.8748,44.39204],[6.9002,44.33574],[6.96729,44.28003],[7.14941,44.20171],[7.31855,44.13799],[7.3709,44.12739],[7.59941,44.16836],[7.63721,44.16484],[7.66504,44.11602],[7.67715,44.08315],[7.65146,44.03364],[7.58965,43.96543],[7.52266,43.91108],[7.48203,43.86489],[7.49053,43.82295],[7.49316,43.76714],[7.43867,43.75044],[7.43691,43.76147],[7.41445,43.7709],[7.39502,43.76533],[7.38008,43.75322],[7.37773,43.73174],[7.26152,43.69609],[7.18145,43.65913],[6.86475,43.43833],[6.7166,43.37358],[6.6874,43.33457],[6.65723,43.26167],[6.57021,43.19907],[6.49404,43.16929],[6.30537,43.13872],[6.11592,43.07236],[6.03057,43.10098],[5.80947,43.0979],[5.67158,43.17783],[5.40654,43.22852],[5.32021,43.34492],[5.19951,43.35249],[5.12041,43.34897],[5.07314,43.3666],[5.06084,43.4063],[5.05977,43.44453],[4.97598,43.42695],[4.91191,43.42695],[4.87373,43.41162],[4.84355,43.39395],[4.80791,43.40522],[4.78721,43.40142],[4.78906,43.37891],[4.71211,43.37329],[4.62871,43.38711],[4.40977,43.44722],[4.37617,43.4564],[4.22422,43.47964],[4.16279,43.50366],[4.11309,43.56304],[4.0751,43.58184],[4.05264,43.59307],[3.91084,43.56309],[3.86162,43.51636],[3.78477,43.46162],[3.25889,43.19321],[3.16289,43.08076],[3.05176,42.91514],[3.04307,42.83789],[3.09092,42.59087],[3.19785,42.46118],[3.21143,42.43115],[3.15215,42.43101],[3.05264,42.44722],[2.97002,42.46724],[2.89141,42.45605],[2.81563,42.42925],[2.74941,42.41304],[2.70186,42.4085],[2.67002,42.39302],[2.65479,42.36211],[2.65166,42.34048],[2.56797,42.3458],[2.37441,42.39028],[2.20039,42.42095],[2.09834,42.38608],[2.03271,42.35352],[1.98652,42.3585],[1.95146,42.39277],[1.92793,42.42632],[1.85977,42.45708],[1.70605,42.50332],[1.71396,42.52563],[1.74023,42.55674],[1.73945,42.57593],[1.70986,42.60444],[1.56816,42.63501],[1.50137,42.64272],[1.45889,42.62168],[1.42832,42.5959],[1.34941,42.69067],[1.29326,42.70996],[1.2083,42.71313],[1.11113,42.74204],[1.01006,42.77896],[0.76445,42.83804],[0.69688,42.84512],[0.66982,42.83574],[0.65176,42.80044],[0.64199,42.70063],[0.63164,42.6896],[0.51768,42.68628],[0.37725,42.70015],[0.31289,42.69326],[0.25547,42.69292],[0.20137,42.71934],[-0.04116,42.68911],[-0.08149,42.70386],[-0.14004,42.74893],[-0.20532,42.7853],[-0.25605,42.80396],[-0.29932,42.82534],[-0.33857,42.82881],[-0.39844,42.80811],[-0.48115,42.79932],[-0.5498,42.802],[-0.58643,42.79897],[-0.74019,42.90952],[-0.76265,42.93979],[-0.83921,42.94819],[-0.93384,42.94951],[-1.17544,43.02114],[-1.28545,43.05962],[-1.30156,43.08247],[-1.30005,43.10098],[-1.31885,43.09697],[-1.35273,43.06426],[-1.37051,43.0376],[-1.39404,43.03262],[-1.42876,43.03677],[-1.46084,43.05176],[-1.48047,43.07114],[-1.45942,43.10498],[-1.42261,43.14912],[-1.40732,43.19712],[-1.41069,43.24009],[-1.47173,43.26768],[-1.56147,43.2792],[-1.62715,43.28247],[-1.71284,43.30703],[-1.75327,43.32471],[-1.79272,43.37256],[-1.79404,43.40732],[-1.63145,43.43804],[-1.48486,43.56377],[-1.346,44.02021],[-1.24551,44.55986],[-1.1708,44.66182],[-1.07695,44.68984],[-1.15288,44.76401],[-1.20039,44.72646],[-1.22031,44.68662],[-1.24521,44.6667],[-1.18906,45.16147],[-1.14907,45.34263],[-1.08101,45.53242],[-0.94175,45.45708],[-0.82632,45.38066],[-0.76665,45.31436],[-0.69111,45.09346],[-0.63398,45.04712],[-0.54849,45.00059],[-0.58228,45.05137],[-0.64111,45.09019],[-0.73311,45.38462],[-0.79077,45.46802],[-0.88066,45.53818],[-1.16997,45.68594],[-1.196,45.71445],[-1.20996,45.7709],[-1.11436,45.76851],[-1.03174,45.74106],[-1.0415,45.77266],[-1.06602,45.80566],[-1.10439,45.92534],[-1.13638,46.20483],[-1.13203,46.25269],[-1.14629,46.31138],[-1.23882,46.32451],[-1.31279,46.3269],[-1.39248,46.3501],[-1.78652,46.51484],[-1.92144,46.68481],[-2.05937,46.8103],[-2.09248,46.86504],[-2.09028,46.92051],[-2.0189,47.03765],[-2.08193,47.11162],[-2.14355,47.12632],[-2.19707,47.16294],[-2.14858,47.22393],[-2.1083,47.26294],[-2.02759,47.27358],[-1.92173,47.26064],[-1.82129,47.22534],[-1.74253,47.21597],[-1.97539,47.31069],[-2.35303,47.27876],[-2.43442,47.29097],[-2.50312,47.31206],[-2.53003,47.38159],[-2.47632,47.41294],[-2.42769,47.4709],[-2.48271,47.51162],[-2.55405,47.52705],[-2.66592,47.52617],[-2.77031,47.51387],[-2.79678,47.53726],[-2.73311,47.60181],[-2.78721,47.62554],[-2.85938,47.61445],[-2.96406,47.60107],[-3.06421,47.62134],[-3.15884,47.69468],[-3.22158,47.69414],[-3.2647,47.68511],[-3.32861,47.71333],[-3.3959,47.72041],[-3.44395,47.71104],[-3.50781,47.75312],[-3.90093,47.83755],[-4.0707,47.84785],[-4.22642,47.80962],[-4.31211,47.8229],[-4.3751,47.87744],[-4.42798,47.96895],[-4.67881,48.0395],[-4.6292,48.08579],[-4.5124,48.09673],[-4.37783,48.12881],[-4.32944,48.16997],[-4.43462,48.21797],[-4.51221,48.22974],[-4.54434,48.24697],[-4.57715,48.29004],[-4.53066,48.30972],[-4.4979,48.29927],[-4.40332,48.29307],[-4.24141,48.30366],[-4.30176,48.34707],[-4.3644,48.35674],[-4.39316,48.36763],[-4.5248,48.37231],[-4.58472,48.35752],[-4.71938,48.36313],[-4.74854,48.41001],[-4.7625,48.45024],[-4.72075,48.53989],[-4.5312,48.61997],[-4.05889,48.70752],[-3.85566,48.69473],[-3.71479,48.7105],[-3.546,48.76567],[-3.47148,48.81294],[-3.23145,48.84082],[-3.00322,48.79067],[-2.79287,48.60107],[-2.69233,48.53682],[-2.44619,48.64829],[-2.07944,48.64502],[-2.00371,48.58208],[-1.97314,48.63511],[-1.90571,48.69712],[-1.85195,48.66885],[-1.82471,48.63052],[-1.43765,48.64141],[-1.37646,48.65259],[-1.48047,48.69761],[-1.56548,48.80552],[-1.58311,49.20239],[-1.69033,49.31318],[-1.81343,49.49014],[-1.87007,49.59512],[-1.87539,49.6314],[-1.85645,49.68379],[-1.70513,49.68096],[-1.58823,49.66768],[-1.36572,49.70728],[-1.25864,49.68018],[-1.26494,49.59824],[-1.23228,49.49487],[-1.19497,49.44482],[-1.13853,49.38789],[-0.95913,49.39316],[-0.76553,49.35972],[-0.5209,49.35454],[-0.16348,49.29678],[-0.01118,49.33022],[0.13613,49.40151],[0.41689,49.44839],[0.43926,49.47319],[0.27764,49.46328],[0.12939,49.50845],[0.10938,49.55752],[0.12656,49.60156],[0.18672,49.70303],[0.61621,49.86294],[0.92412,49.91021],[1.24551,49.99824],[1.40723,50.08853],[1.51406,50.20508],[1.54844,50.23071],[1.59277,50.2522],[1.55156,50.29395],[1.57949,50.73926],[1.60957,50.81948],[1.67227,50.88501],[1.76768,50.93569],[1.9125,50.99062],[2.4457,51.0665],[2.5249,51.09712],[2.53604,51.04951],[2.5748,50.98857],[2.60146,50.95527],[2.5793,50.91177],[2.59678,50.87593],[2.66914,50.81143],[2.75938,50.75063],[2.83975,50.71177],[2.8624,50.71602],[2.92197,50.72705],[3.02285,50.76689],[3.10684,50.77944],[3.15488,50.74893],[3.18203,50.73169],[3.23496,50.66294],[3.2498,50.59116],[3.27334,50.53154],[3.31621,50.50737],[3.47695,50.49946],[3.59541,50.47734],[3.62676,50.45732],[3.66729,50.3248],[3.68936,50.30605],[3.71885,50.32168],[3.74805,50.34351],[3.78857,50.34697],[3.85811,50.33857],[3.94971,50.33594],[4.04414,50.32134],[4.17461,50.24648],[4.16963,50.22178],[4.14414,50.17842],[4.13525,50.1438],[4.15771,50.12988],[4.19219,50.09414],[4.18389,50.05283],[4.15029,50.02388],[4.13682,50.0],[4.13701,49.98447],[4.14932,49.97158],[4.17607,49.96025],[4.36875,49.94497],[4.54502,49.96025],[4.65615,50.00244],[4.6751,50.04688],[4.70664,50.09707],[4.77285,50.13906],[4.81865,50.15317],[4.86055,50.13589],[4.79004,49.95957],[4.8415,49.9145],[4.84912,49.84712],[4.86758,49.78813],[4.93057,49.78926],[5.00693,49.77837],[5.06104,49.75654],[5.12412,49.72148],[5.21504,49.68926],[5.27881,49.67793],[5.30195,49.65098],[5.35352,49.61982],[5.43467,49.55449],[5.50732,49.51089],[5.54238,49.51104],[5.61006,49.52822],[5.71045,49.53921],[5.78975,49.53828],[5.82344,49.50508],[5.90137,49.48975],[5.92891,49.47754],[5.95947,49.45464],[6.01143,49.44546],[6.07412,49.45464],[6.11992,49.48521],[6.18105,49.49893],[6.24219,49.49434],[6.27734,49.47754],[6.34434,49.45273],[6.38223,49.45815],[6.45811,49.44287],[6.53428,49.39468],[6.56631,49.34619],[6.57471,49.31968],[6.60762,49.29087],[6.73545,49.1606],[6.77627,49.15415],[6.8207,49.17393],[6.84951,49.20195],[6.89121,49.20752],[6.9583,49.19463],[7.00146,49.17988],[7.02217,49.12344],[7.03672,49.1127],[7.06572,49.12485],[7.11738,49.12754],[7.1999,49.11362],[7.31338,49.12954],[7.4042,49.15308],[7.45059,49.1522],[7.52549,49.08638],[7.61094,49.06177],[7.79922,49.04189],[8.00127,49.01094],[8.08066,48.98589],[8.13486,48.97358],[8.14033,48.88643],[8.12402,48.87329],[7.92275,48.69854],[7.83799,48.63604],[7.79482,48.54683],[7.76514,48.41001],[7.70566,48.28003],[7.6166,48.15679],[7.58418,48.06431],[7.6085,48.00259],[7.59326,47.90566],[7.53857,47.77363],[7.52939,47.67388],[7.56543,47.60654],[7.61563,47.59272]]]]}},{"type":"Feature","properties":{"NAME":"Belgium","NAME_EN":"Belgium","ADM0_A3":"BEL","ISO_A3":"BEL","SOVEREIGNT":"Belgium","TYPE":"Sovereign country"},"geometry":{"type":"MultiPolygon","coordinates":[[[[4.22617,51.38647],[4.30449,51.36152],[4.37373,51.35601],[4.404,51.36709],[4.38477,51.42759],[4.44092,51.45981],[4.50342,51.47471],[4.53164,51.44858],[4.58877,51.42192],[4.63398,51.42173],[4.75566,51.49111],[4.78418,51.47739],[4.81055,51.45273],[4.81602,51.43281],[4.8207,51.41206],[4.84805,51.40327],[4.94395,51.40776],[4.99258,51.44536],[5.03096,51.46909],[5.05947,51.45312],[5.07344,51.40684],[5.0999,51.34648],[5.21416,51.27896],[5.31084,51.25972],[5.42979,51.273],[5.47686,51.28506],[5.50879,51.275],[5.54043,51.23931],[5.60879,51.19844],[5.75234,51.16948],[5.79648,51.15308],[5.82715,51.12563],[5.81826,51.08643],[5.7498,50.98877],[5.74082,50.95991],[5.75,50.95024],[5.73662,50.93213],[5.64756,50.86665],[5.63945,50.8436],[5.66914,50.80596],[5.69355,50.77476],[5.69365,50.77466],[5.74707,50.75957],[5.79736,50.75454],[5.89246,50.75256],[5.99395,50.75044],[6.00596,50.73223],[6.11943,50.67925],[6.15449,50.63726],[6.23594,50.59668],[6.16846,50.54536],[6.17871,50.52251],[6.20303,50.49912],[6.29492,50.4855],[6.34092,50.45176],[6.34365,50.40024],[6.36445,50.31616],[6.1751,50.23267],[6.12129,50.13936],[6.1165,50.121],[6.11006,50.12378],[6.08906,50.15459],[6.05479,50.1543],[5.97627,50.16719],[5.86689,50.08281],[5.81738,50.0127],[5.78809,49.96123],[5.74404,49.91963],[5.73525,49.87563],[5.74082,49.85718],[5.72578,49.83335],[5.725,49.8083],[5.78799,49.75889],[5.80371,49.73218],[5.88037,49.64478],[5.85654,49.61284],[5.8376,49.57832],[5.81543,49.55381],[5.78975,49.53828],[5.71045,49.53921],[5.61006,49.52822],[5.54238,49.51104],[5.50732,49.51089],[5.43467,49.55449],[5.35352,49.61982],[5.30195,49.65098],[5.27881,49.67793],[5.21504,49.68926],[5.12412,49.72148],[5.06104,49.75654],[5.00693,49.77837],[4.93057,49.78926],[4.86758,49.78813],[4.84912,49.84712],[4.8415,49.9145],[4.79004,49.95957],[4.86055,50.13589],[4.81865,50.15317],[4.77285,50.13906],[4.70664,50.09707],[4.6751,50.04688],[4.65615,50.00244],[4.54502,49.96025],[4.36875,49.94497],[4.17607,49.96025],[4.14932,49.97158],[4.13701,49.98447],[4.13682,50.0],[4.15029,50.02388],[4.18389,50.05283],[4.19219,50.09414],[4.15771,50.12988],[4.13525,50.1438],[4.14414,50.17842],[4.16963,50.22178],[4.17461,50.24648],[4.04414,50.32134],[3.94971,50.33594],[3.85811,50.33857],[3.78857,50.34697],[3.74805,50.34351],[3.71885,50.32168],[3.68936,50.30605],[3.66729,50.3248],[3.62676,50.45732],[3.59541,50.47734],[3.47695,50.49946],[3.31621,50.50737],[3.27334,50.53154],[3.2498,50.59116],[3.23496,50.66294],[3.18203,50.73169],[3.15488,50.74893],[3.10684,50.77944],[3.02285,50.76689],[2.92197,50.72705],[2.8624,50.71602],[2.83975,50.71177],[2.75938,50.75063],[2.66914,50.81143],[2.59678,50.87593],[2.5793,50.91177],[2.60146,50.95527],[2.5748,50.98857],[2.53604,51.04951],[2.5249,51.09712],[2.96016,51.26543],[3.2252,51.35161],[3.3501,51.37769],[3.38008,51.29111],[3.40283,51.26362],[3.43252,51.24575],[3.47197,51.24224],[3.51709,51.26362],[3.58027,51.28618],[3.68184,51.27568],[3.75566,51.25483],[3.78193,51.2332],[3.83076,51.2126],[3.90205,51.20767],[4.04004,51.24707],[4.17256,51.30708],[4.21143,51.34873],[4.22617,51.38647]]]]}}]}